{"type": "FeatureCollection", "features": [ {"type": "Feature", "properties": {"norad_id": 35116, "name": "FENGYUN 1C DEB", "group": "fengyun-1c-debris", "lat": 49.96731668284879, "lon": -123.28167755624915, "alt_km": 824.4706524707035, "timestamp": "2025-12-26T11:25:45.480686+00:00", "meta": {"OBJECT_NAME": "FENGYUN 1C DEB", "OBJECT_ID": "1999-025DKU", "EPOCH": "2025-12-24T09:57:48.369888", "MEAN_MOTION": 14.25125441, "ECCENTRICITY": 0.00585622, "INCLINATION": 98.6606, "RA_OF_ASC_NODE": 44.2312, "ARG_OF_PERICENTER": 14.893, "MEAN_ANOMALY": 345.3957, "EPHEMERIS_TYPE": 0, "CLASSIFICATION_TYPE": "U", "NORAD_CAT_ID": 35116, "ELEMENT_SET_NO": 999, "REV_AT_EPOCH": 60126, "BSTAR": 0.0010177664, "MEAN_MOTION_DOT": 2.388e-05, "MEAN_MOTION_DDOT": 0}, "tle": {"line1": "1 35116U 99025DKU 25358.41514317  .00002388  00000+0  10178-2 0  9999", "line2": "2 35116  98.6606  44.2312 0058562  14.8930 345.3957 14.25125441601260"}}, "geometry": {"type": "Point", "coordinates": [-123.28167755624915, 49.96731668284879]}}, {"type": "Feature", "properties": {"norad_id": 35121, "name": "FENGYUN 1C DEB", "group": "fengyun-1c-debris", "lat": 21.847782849826, "lon": -140.78584946759207, "alt_km": 783.053646693601, "timestamp": "2025-12-26T11:25:45.480695+00:00", "meta": {"OBJECT_NAME": "FENGYUN 1C DEB", "OBJECT_ID": "1999-025DKZ", "EPOCH": "2025-12-24T09:45:12.648096", "MEAN_MOTION": 14.04760226, "ECCENTRICITY": 0.01583792, "INCLINATION": 98.3006, "RA_OF_ASC_NODE": 220.6752, "ARG_OF_PERICENTER": 63.7329, "MEAN_ANOMALY": 298.0018, "EPHEMERIS_TYPE": 0, "CLASSIFICATION_TYPE": "U", "NORAD_CAT_ID": 35121, "ELEMENT_SET_NO": 999, "REV_AT_EPOCH": 61255, "BSTAR": 0.00033495737, "MEAN_MOTION_DOT": 5.63e-06, "MEAN_MOTION_DDOT": 0}, "tle": {"line1": "1 35121U 99025DKZ 25358.40639639  .00000563  00000+0  33496-3 0  9991", "line2": "2 35121  98.3006 220.6752 0158379  63.7329 298.0018 14.04760226612556"}}, "geometry": {"type": "Point", "coordinates": [-140.78584946759207, 21.847782849826]}}, {"type": "Feature", "properties": {"norad_id": 35122, "name": "FENGYUN 1C DEB", "group": "fengyun-1c-debris", "lat": 46.89395603637314, "lon": 9.099074955231938, "alt_km": 835.1793813645309, "timestamp": "2025-12-26T11:25:45.480704+00:00", "meta": {"OBJECT_NAME": "FENGYUN 1C DEB", "OBJECT_ID": "1999-025DLA", "EPOCH": "2025-12-23T18:40:36.959520", "MEAN_MOTION": 14.14136172, "ECCENTRICITY": 0.00257053, "INCLINATION": 98.6712, "RA_OF_ASC_NODE": 15.8646, "ARG_OF_PERICENTER": 127.0383, "MEAN_ANOMALY": 233.3147, "EPHEMERIS_TYPE": 0, "CLASSIFICATION_TYPE": "U", "NORAD_CAT_ID": 35122, "ELEMENT_SET_NO": 999, "REV_AT_EPOCH": 64023, "BSTAR": 0.00025927535, "MEAN_MOTION_DOT": 4.53e-06, "MEAN_MOTION_DDOT": 0}, "tle": {"line1": "1 35122U 99025DLA 25357.77820555  .00000453  00000+0  25928-3 0  9999", "line2": "2 35122  98.6712  15.8646 0025705 127.0383 233.3147 14.14136172640239"}}, "geometry": {"type": "Point", "coordinates": [9.099074955231938, 46.89395603637314]}}, {"type": "Feature", "properties": {"norad_id": 35123, "name": "FENGYUN 1C DEB", "group": "fengyun-1c-debris", "lat": -17.988027784526103, "lon": -173.3304436360265, "alt_km": 795.5324628740591, "timestamp": "2025-12-26T11:25:45.480713+00:00", "meta": {"OBJECT_NAME": "FENGYUN 1C DEB", "OBJECT_ID": "1999-025DLB", "EPOCH": "2025-12-23T11:00:52.327872", "MEAN_MOTION": 14.24243366, "ECCENTRICITY": 0.00495513, "INCLINATION": 99.122, "RA_OF_ASC_NODE": 180.5488, "ARG_OF_PERICENTER": 45.8154, "MEAN_ANOMALY": 314.7079, "EPHEMERIS_TYPE": 0, "CLASSIFICATION_TYPE": "U", "NORAD_CAT_ID": 35123, "ELEMENT_SET_NO": 999, "REV_AT_EPOCH": 61226, "BSTAR": 0.00049277559, "MEAN_MOTION_DOT": 1.104e-05, "MEAN_MOTION_DDOT": 0}, "tle": {"line1": "1 35123U 99025DLB 25357.45893898  .00001104  00000+0  49278-3 0  9993", "line2": "2 35123  99.1220 180.5488 0049551  45.8154 314.7079 14.24243366612267"}}, "geometry": {"type": "Point", "coordinates": [-173.3304436360265, -17.988027784526103]}}, {"type": "Feature", "properties": {"norad_id": 35125, "name": "FENGYUN 1C DEB", "group": "fengyun-1c-debris", "lat": 33.63471622380546, "lon": -163.664528509105, "alt_km": 789.6305637693113, "timestamp": "2025-12-26T11:25:45.480722+00:00", "meta": {"OBJECT_NAME": "FENGYUN 1C DEB", "OBJECT_ID": "1999-025DLD", "EPOCH": "2025-12-23T19:04:31.882944", "MEAN_MOTION": 14.33205942, "ECCENTRICITY": 0.00520496, "INCLINATION": 98.2155, "RA_OF_ASC_NODE": 8.2757, "ARG_OF_PERICENTER": 261, "MEAN_ANOMALY": 98.5292, "EPHEMERIS_TYPE": 0, "CLASSIFICATION_TYPE": "U", "NORAD_CAT_ID": 35125, "ELEMENT_SET_NO": 999, "REV_AT_EPOCH": 31440, "BSTAR": 0.0012382099, "MEAN_MOTION_DOT": 3.414e-05, "MEAN_MOTION_DDOT": 0}, "tle": {"line1": "1 35125U 99025DLD 25357.79481346  .00003414  00000+0  12382-2 0  9994", "line2": "2 35125  98.2155   8.2757 0052049 261.0000  98.5292 14.33205942314406"}}, "geometry": {"type": "Point", "coordinates": [-163.664528509105, 33.63471622380546]}}, {"type": "Feature", "properties": {"norad_id": 35130, "name": "FENGYUN 1C DEB", "group": "fengyun-1c-debris", "lat": -45.89846791992959, "lon": 17.82254008167727, "alt_km": 573.6890351706961, "timestamp": "2025-12-26T11:25:45.480730+00:00", "meta": {"OBJECT_NAME": "FENGYUN 1C DEB", "OBJECT_ID": "1999-025DLJ", "EPOCH": "2025-12-21T20:07:04.434528", "MEAN_MOTION": 15.01765435, "ECCENTRICITY": 0.00121415, "INCLINATION": 99.0319, "RA_OF_ASC_NODE": 201.8749, "ARG_OF_PERICENTER": 44.6238, "MEAN_ANOMALY": 315.5957, "EPHEMERIS_TYPE": 0, "CLASSIFICATION_TYPE": "U", "NORAD_CAT_ID": 35130, "ELEMENT_SET_NO": 999, "REV_AT_EPOCH": 65050, "BSTAR": 0.006798984, "MEAN_MOTION_DOT": 0.00089702, "MEAN_MOTION_DDOT": 0}, "tle": {"line1": "1 35130U 99025DLJ 25355.83824577  .00089702  00000+0  67990-2 0  9999", "line2": "2 35130  99.0319 201.8749 0012141  44.6238 315.5957 15.01765435650500"}}, "geometry": {"type": "Point", "coordinates": [17.82254008167727, -45.89846791992959]}}, {"type": "Feature", "properties": {"norad_id": 35135, "name": "FENGYUN 1C DEB", "group": "fengyun-1c-debris", "lat": 60.92079613062758, "lon": -6.826137463752974, "alt_km": 868.93220302601, "timestamp": "2025-12-26T11:25:45.480740+00:00", "meta": {"OBJECT_NAME": "FENGYUN 1C DEB", "OBJECT_ID": "1999-025DLP", "EPOCH": "2025-12-24T11:52:08.678496", "MEAN_MOTION": 14.22564349, "ECCENTRICITY": 0.00809281, "INCLINATION": 98.5655, "RA_OF_ASC_NODE": 6.9722, "ARG_OF_PERICENTER": 249.8377, "MEAN_ANOMALY": 109.4083, "EPHEMERIS_TYPE": 0, "CLASSIFICATION_TYPE": "U", "NORAD_CAT_ID": 35135, "ELEMENT_SET_NO": 999, "REV_AT_EPOCH": 87991, "BSTAR": 0.00044436742, "MEAN_MOTION_DOT": 9.83e-06, "MEAN_MOTION_DDOT": 0}, "tle": {"line1": "1 35135U 99025DLP 25358.49454489  .00000983  00000+0  44437-3 0  9996", "line2": "2 35135  98.5655   6.9722 0080928 249.8377 109.4083 14.22564349879919"}}, "geometry": {"type": "Point", "coordinates": [-6.826137463752974, 60.92079613062758]}}, {"type": "Feature", "properties": {"norad_id": 35139, "name": "FENGYUN 1C DEB", "group": "fengyun-1c-debris", "lat": 79.33834669887968, "lon": -48.037460415464956, "alt_km": 862.7739085423473, "timestamp": "2025-12-26T11:25:45.480749+00:00", "meta": {"OBJECT_NAME": "FENGYUN 1C DEB", "OBJECT_ID": "1999-025DLT", "EPOCH": "2025-12-23T06:59:35.689920", "MEAN_MOTION": 14.21110814, "ECCENTRICITY": 0.00678971, "INCLINATION": 98.583, "RA_OF_ASC_NODE": 2.2123, "ARG_OF_PERICENTER": 266.3945, "MEAN_ANOMALY": 92.9465, "EPHEMERIS_TYPE": 0, "CLASSIFICATION_TYPE": "U", "NORAD_CAT_ID": 35139, "ELEMENT_SET_NO": 999, "REV_AT_EPOCH": 64303, "BSTAR": 0.0003440048, "MEAN_MOTION_DOT": 7.22e-06, "MEAN_MOTION_DDOT": 0}, "tle": {"line1": "1 35139U 99025DLT 25357.29138530  .00000722  00000+0  34400-3 0  9993", "line2": "2 35139  98.5830   2.2123 0067897 266.3945  92.9465 14.21110814643032"}}, "geometry": {"type": "Point", "coordinates": [-48.037460415464956, 79.33834669887968]}}, {"type": "Feature", "properties": {"norad_id": 35140, "name": "FENGYUN 1C DEB", "group": "fengyun-1c-debris", "lat": -0.4759475378739262, "lon": 161.20759878161613, "alt_km": 876.2010397552067, "timestamp": "2025-12-26T11:25:45.480758+00:00", "meta": {"OBJECT_NAME": "FENGYUN 1C DEB", "OBJECT_ID": "1999-025DLU", "EPOCH": "2025-12-25T04:08:35.577600", "MEAN_MOTION": 14.21366146, "ECCENTRICITY": 0.02900907, "INCLINATION": 98.4461, "RA_OF_ASC_NODE": 340.0292, "ARG_OF_PERICENTER": 290.3158, "MEAN_ANOMALY": 66.7068, "EPHEMERIS_TYPE": 0, "CLASSIFICATION_TYPE": "U", "NORAD_CAT_ID": 35140, "ELEMENT_SET_NO": 999, "REV_AT_EPOCH": 87455, "BSTAR": 0.0002082318, "MEAN_MOTION_DOT": 6.44e-06, "MEAN_MOTION_DDOT": 0}, "tle": {"line1": "1 35140U 99025DLU 25359.17263400  .00000644  00000+0  20823-3 0  9996", "line2": "2 35140  98.4461 340.0292 0290090 290.3158  66.7068 14.21366146874551"}}, "geometry": {"type": "Point", "coordinates": [161.20759878161613, -0.4759475378739262]}}, {"type": "Feature", "properties": {"norad_id": 35142, "name": "FENGYUN 1C DEB", "group": "fengyun-1c-debris", "lat": 32.93323728280489, "lon": -13.660329798910555, "alt_km": 987.584184668046, "timestamp": "2025-12-26T11:25:45.480767+00:00", "meta": {"OBJECT_NAME": "FENGYUN 1C DEB", "OBJECT_ID": "1999-025DLW", "EPOCH": "2025-12-22T11:17:59.858880", "MEAN_MOTION": 13.90511654, "ECCENTRICITY": 0.01079849, "INCLINATION": 99.0448, "RA_OF_ASC_NODE": 348.3644, "ARG_OF_PERICENTER": 187.5379, "MEAN_ANOMALY": 327.226, "EPHEMERIS_TYPE": 0, "CLASSIFICATION_TYPE": "U", "NORAD_CAT_ID": 35142, "ELEMENT_SET_NO": 999, "REV_AT_EPOCH": 85824, "BSTAR": 0.00012122945, "MEAN_MOTION_DOT": 1.15e-06, "MEAN_MOTION_DDOT": 0}, "tle": {"line1": "1 35142U 99025DLW 25356.47083170  .00000115  00000+0  12123-3 0  9999", "line2": "2 35142  99.0448 348.3644 0107984 187.5379 327.2260 13.90511654858246"}}, "geometry": {"type": "Point", "coordinates": [-13.660329798910555, 32.93323728280489]}}]}